     3.03           N: GNSS NAV DATA    E: GALILEO          RINEX VERSION / TYPE
gl_Rinex            NMA                 20220102 035911 UTC PGM / RUN BY / DATE 
GAL    8.7750E+01  4.1797E-01 -1.0742E-02  0.0000E+00       IONOSPHERIC CORR    
                                                            END OF HEADER       
E05 2022 01 01 12 10 00-2.220613532700E-04 2.870592652471E-12 0.000000000000E+00
     4.100000000000E+01 1.746875000000E+01 3.683724870498E-09-2.628590661638E-01
     9.052455425262E-07 1.370985992253E-04 7.167458534241E-06 5.440603868484E+03
     5.622000000000E+05 1.117587089539E-08 8.998260063478E-01 4.284083843231E-08
     9.556669777427E-01 1.846875000000E+02 2.015293734513E+00-5.550945504876E-09
     7.350306169755E-10 5.130000000000E+02 2.190000000000E+03                   
     3.120000000000E+00 0.000000000000E+00 4.423782229424E-09 3.958120942116E-09
     5.628850000000E+05                                                         
E14 2022 01 01 12 10 00-1.694903941825E-03-1.321609488514E-11 0.000000000000E+00
     4.100000000000E+01 2.075000000000E+01 7.080294922703E-09-3.069161139338E-01
     4.824250936508E-07 1.636712809559E-01 3.321096301079E-06 5.289323009491E+03
     5.622000000000E+05-7.394701242447E-07-2.036293013606E+00-1.976266503334E-06
     8.797048101850E-01 2.786875000000E+02 2.075927215295E+00-1.212371928729E-08
    -6.393123442110E-11 5.130000000000E+02 2.190000000000E+03                   
     3.120000000000E+00 1.440000000000E+02-3.026798367500E-09-2.561137080193E-09
     5.628850000000E+05                                                         
E09 2022 01 01 12 10 00 5.410106154159E-03-1.301714291913E-11 0.000000000000E+00
     4.100000000000E+01 2.378125000000E+01 3.601578591633E-09 1.969738717147E+00
     1.151114702225E-06 2.058011014014E-04 7.243826985359E-06 5.440602863312E+03
     5.622000000000E+05-1.303851604462E-08 8.959909285672E-01 4.284083843231E-08
     9.616431838871E-01 1.854687500000E+02 5.529504123527E-01-5.501300579822E-09
     7.071723137082E-10 5.130000000000E+02 2.190000000000E+03                   
     3.120000000000E+00 0.000000000000E+00 2.095475792885E-09 1.862645149231E-09
     5.628850000000E+05                                                         
E24 2022 01 01 12 10 00-1.311405911110E-03-2.067679361062E-11 0.000000000000E+00
     4.100000000000E+01 1.819687500000E+02 2.466888470092E-09-1.261291248700E-02
     8.428469300270E-06 6.842392031103E-04 1.283921301365E-05 5.440620929718E+03
     5.622000000000E+05-1.862645149231E-09 3.000860724340E+00 3.539025783539E-08
     9.731962619649E-01 7.084375000000E+01 4.892445183351E-01-5.061282251293E-09
    -4.425184326689E-10 5.130000000000E+02 2.190000000000E+03                   
     3.120000000000E+00 0.000000000000E+00-3.958120942116E-09-3.026798367500E-09
     5.633350000000E+05                                                         
E03 2022 01 01 12 10 00-5.124668823555E-04-3.979039320257E-12 0.000000000000E+00
     4.100000000000E+01 1.343750000000E+01 3.636580049585E-09-8.151214227934E-02
     7.636845111847E-07 2.729385159910E-04 7.385388016701E-06 5.440605808258E+03
     5.622000000000E+05 8.009374141693E-08 8.998320057749E-01-7.450580596924E-09
     9.556537617408E-01 1.786250000000E+02 1.041670035681E+00-5.556660028623E-09
     7.078866291766E-10 5.130000000000E+02 2.190000000000E+03                   
     3.120000000000E+00 0.000000000000E+00 3.725290298462E-09 3.259629011154E-09
     5.633950000000E+05                                                         
E31 2022 01 01 12 10 00-4.901501815766E-04-4.973799150321E-13 0.000000000000E+00
     4.100000000000E+01 1.727500000000E+02 2.445459006041E-09 1.927586959254E+00
     8.048489689827E-06 3.203140804544E-04 1.237541437149E-05 5.440626054764E+03
     5.622000000000E+05-5.215406417847E-08 2.996385008400E+00-4.656612873077E-08
     9.752528146457E-01 8.459375000000E+01-7.129152919435E-01-5.002351225150E-09
    -4.621621080497E-10 5.130000000000E+02 2.190000000000E+03                   
     3.120000000000E+00 0.000000000000E+00 6.053596735001E-09 5.355104804039E-09
     5.633950000000E+05                                                         
E13 2022 01 01 12 10 00 4.252330400050E-04 4.263256414561E-13 0.000000000000E+00
     4.100000000000E+01-1.577500000000E+02 2.789044746337E-09 2.938182422017E+00
    -7.526949048042E-06 2.986424369738E-04-2.244487404823E-06 5.440603736877E+03
     5.622000000000E+05 6.705522537231E-08-1.202808079019E+00-2.607703208923E-08
     9.964822473254E-01 4.025625000000E+02-1.422941126112E+00-5.808456231231E-09
    -2.060800126311E-10 5.130000000000E+02 2.190000000000E+03                   
     3.120000000000E+00 0.000000000000E+00 0.000000000000E+00 4.656612873077E-10
     5.634550000000E+05                                                         
E15 2022 01 01 12 20 00 7.718845736235E-04-2.202682480856E-12 0.000000000000E+00
     4.200000000000E+01-1.759687500000E+02 2.727970773790E-09-2.392697467876E+00
    -8.115544915199E-06 3.528279485181E-04-2.387911081314E-06 5.440606336594E+03
     5.628000000000E+05 6.891787052155E-08-1.202854282360E+00 8.754432201386E-08
     9.964400494534E-01 4.081250000000E+02-1.510125668876E+00-5.873101781120E-09
    -2.510818871398E-10 5.130000000000E+02 2.190000000000E+03                   
     3.120000000000E+00 0.000000000000E+00 6.984919309616E-09 6.519258022308E-09
     5.634850000000E+05                                                         
E13 2022 01 01 12 20 00 4.252332146280E-04 4.263256414561E-13 0.000000000000E+00
     4.200000000000E+01-1.565000000000E+02 2.790116219540E-09 3.012314104551E+00
    -7.446855306625E-06 2.987984335050E-04-2.276152372360E-06 5.440603389740E+03
     5.628000000000E+05 7.450580596924E-08-1.202811527117E+00-2.607703208923E-08
     9.964821302919E-01 4.030625000000E+02-1.422687382971E+00-5.811313493104E-09
    -2.096515899731E-10 5.130000000000E+02 2.190000000000E+03                   
     3.120000000000E+00 0.000000000000E+00 0.000000000000E+00 4.656612873077E-10
     5.634850000000E+05                                                         
E03 2022 01 01 12 20 00-5.124693270773E-04-3.979039320257E-12 0.000000000000E+00
     4.200000000000E+01 1.343750000000E+01 3.638365838256E-09-7.126966763916E-03
     7.636845111847E-07 2.729390980676E-04 7.394701242447E-06 5.440605810165E+03
     5.628000000000E+05 7.823109626770E-08 8.998286235083E-01 5.587935447693E-09
     9.556541508770E-01 1.786250000000E+02 1.041670860767E+00-5.556302870888E-09
     7.157440993290E-10 5.130000000000E+02 2.190000000000E+03                   
     3.120000000000E+00 0.000000000000E+00 3.725290298462E-09 3.259629011154E-09
     5.634850000000E+05                                                         
E24 2022 01 01 12 20 00-1.311418192927E-03-2.066258275590E-11 0.000000000000E+00
     4.200000000000E+01 1.783750000000E+02 2.481889094929E-09 6.225447740030E-02
     8.273869752884E-06 6.837802939117E-04 1.271814107895E-05 5.440619806290E+03
     5.628000000000E+05-9.313225746155E-09 3.000857703414E+00 3.539025783539E-08
     9.731960235093E-01 7.362500000000E+01 4.887613545294E-01-5.058782147153E-09
    -4.464471677451E-10 5.130000000000E+02 2.190000000000E+03                   
     3.120000000000E+00 0.000000000000E+00-3.958120942116E-09-3.026798367500E-09
     5.634850000000E+05                                                         
E31 2022 01 01 12 20 00-4.901505308226E-04-4.973799150321E-13 0.000000000000E+00
     4.200000000000E+01 1.714375000000E+02 2.440458797762E-09 2.001399282382E+00
     7.985159754753E-06 3.200420178473E-04 1.248717308044E-05 5.440626705170E+03
     5.628000000000E+05-4.097819328308E-08 2.996382066472E+00-5.587935447693E-08
     9.752525674126E-01 8.234375000000E+01-7.123429881504E-01-5.005208487024E-09
    -4.700195782020E-10 5.130000000000E+02 2.190000000000E+03                   
     3.120000000000E+00 0.000000000000E+00 6.053596735001E-09 5.355104804039E-09
     5.634850000000E+05                                                         
E26 2022 01 01 12 20 00-6.370910559781E-04-4.401101705298E-11 0.000000000000E+00
     4.200000000000E+01-1.640000000000E+02 2.795830743287E-09 2.669814265303E+00
    -7.797032594681E-06 3.093240084127E-04-1.089647412300E-06 5.440609270096E+03
     5.628000000000E+05 4.097819328308E-08-1.198887514157E+00-6.146728992462E-08
     9.897544304448E-01 3.774375000000E+02-1.906754549375E+00-5.855601052145E-09
    -2.160804291886E-10 5.130000000000E+02 2.190000000000E+03                   
     3.120000000000E+00 0.000000000000E+00-4.656612873077E-09-4.190951585770E-09
     5.635750000000E+05                                                         
E05 2022 01 01 12 20 00-2.220596070401E-04 2.870592652471E-12 0.000000000000E+00
     4.200000000000E+01 1.825000000000E+01 3.686224974638E-09-1.882237989510E-01
     9.313225746155E-07 1.370100071654E-04 7.169321179390E-06 5.440603681564E+03
     5.628000000000E+05 7.450580596924E-09 8.998226460250E-01 3.911554813385E-08
     9.556674210069E-01 1.846562500000E+02 2.015044498623E+00-5.548445400736E-09
     7.371735633807E-10 5.130000000000E+02 2.190000000000E+03                   
     3.120000000000E+00 0.000000000000E+00 4.423782229424E-09 3.958120942116E-09
     5.636350000000E+05                                                         
